[
  {
    "name": "ONEWEB-0310",
    "noradId": "49096",
    "line1": "1 49096U 21075X   26156.03766036 -.00000353  00000+0 -10178-2 0  9995",
    "line2": "2 49096  87.8944 353.0973 0001843  82.9603 277.1735 13.12443148233599"
  },
  {
    "name": "ONEWEB-0311",
    "noradId": "49097",
    "line1": "1 49097U 21075Y   26156.02193747  .00000033  00000+0  50537-4 0  9996",
    "line2": "2 49097  87.9147   8.2835 0002320  89.7503 270.3894 13.17648291232026"
  },
  {
    "name": "ONEWEB-0312",
    "noradId": "49098",
    "line1": "1 49098U 21075Z   26156.03711698  .00000179  00000+0  42739-3 0  9994",
    "line2": "2 49098  87.9141   8.2905 0002040  95.2895 264.8469 13.17650956232009"
  },
  {
    "name": "ONEWEB-0313",
    "noradId": "49099",
    "line1": "1 49099U 21075AA  26156.04202925  .00000085  00000+0  18473-3 0  9998",
    "line2": "2 49099  87.9140   8.2953 0001936  86.5522 273.5831 13.17651714231995"
  },
  {
    "name": "ONEWEB-0314",
    "noradId": "49100",
    "line1": "1 49100U 21075AB  26156.00843264  .00000002  00000+0 -28883-4 0  9991",
    "line2": "2 49100  87.9152   8.2739 0002111 104.1802 255.9564 13.17650294231963"
  },
  {
    "name": "ONEWEB-0315",
    "noradId": "49101",
    "line1": "1 49101U 21075AC  26156.01056287  .00000255  00000+0  67409-3 0  9999",
    "line2": "2 49101  87.8951 353.0664 0002176  85.2827 274.8550 13.12442035233576"
  },
  {
    "name": "ONEWEB-0316",
    "noradId": "49102",
    "line1": "1 49102U 21075AD  26156.01857796  .00000052  00000+0  99624-4 0  9994",
    "line2": "2 49102  87.9157 337.8786 0001916  91.0770 269.0581 13.18686137235609"
  },
  {
    "name": "ONEWEB-0317",
    "noradId": "49103",
    "line1": "1 49103U 21075AE  26156.01394985  .00000137  00000+0  34453-3 0  9993",
    "line2": "2 49103  87.8952 353.0890 0001133 100.4952 259.6304 13.12441724233595"
  },
  {
    "name": "ONEWEB-0318",
    "noradId": "49104",
    "line1": "1 49104U 21075AF  26156.01520229  .00000031  00000+0  46828-4 0  9999",
    "line2": "2 49104  87.9167 337.8794 0002107  89.9246 270.2127 13.18686116235560"
  },
  {
    "name": "ONEWEB-0319",
    "noradId": "49105",
    "line1": "1 49105U 21075AG  26156.02361235  .00000034  00000+0  55578-4 0  9996",
    "line2": "2 49105  87.9139   8.2874 0002355  82.2900 277.8499 13.17647859232007"
  },
  {
    "name": "ONEWEB-0323",
    "noradId": "49106",
    "line1": "1 49106U 21075AH  26156.07155639  .00000490  00000+0  13266-2 0  9993",
    "line2": "2 49106  87.8943 353.0571 0002394  85.7827 274.3575 13.12442810232961"
  },
  {
    "name": "ONEWEB-0329",
    "noradId": "49107",
    "line1": "1 49107U 21075AJ  26156.03204890  .00000069  00000+0  14524-3 0  9995",
    "line2": "2 49107  87.9142   8.2870 0001944  88.5923 271.5432 13.17647958231980"
  },
  {
    "name": "ONEWEB-0330",
    "noradId": "49108",
    "line1": "1 49108U 21075AK  26155.97989182 -.00000119  00000+0 -34008-3 0  9999",
    "line2": "2 49108  87.9145   8.3172 0001898  95.9836 264.1511 13.17649808232010"
  },
  {
    "name": "ONEWEB-0292",
    "noradId": "49186",
    "line1": "1 49186U 21083A   26155.97714191  .00000201  00000+0  51458-3 0  9998",
    "line2": "2 49186  87.8935 322.6715 0001979  90.6035 269.5321 13.13469724229321"
  },
  {
    "name": "ONEWEB-0303",
    "noradId": "49187",
    "line1": "1 49187U 21083B   26156.01183509  .00000029  00000+0  41233-4 0  9997",
    "line2": "2 49187  87.9161 337.8799 0001991  88.3542 271.7818 13.18685826228373"
  },
  {
    "name": "ONEWEB-0306",
    "noradId": "49188",
    "line1": "1 49188U 21083C   26156.00171545  .00000047  00000+0  85822-4 0  9996",
    "line2": "2 49188  87.9168 337.8689 0001637  94.1836 265.9483 13.18686188228417"
  },
  {
    "name": "ONEWEB-0307",
    "noradId": "49189",
    "line1": "1 49189U 21083D   26155.97122080  .00000030  00000+0  47203-4 0  9995",
    "line2": "2 49189  87.8946 322.6685 0001937  93.9037 266.2314 13.13470130229323"
  },
  {
    "name": "ONEWEB-0320",
    "noradId": "49190",
    "line1": "1 49190U 21083E   26156.02193477  .00000011  00000+0 -44975-5 0  9996",
    "line2": "2 49190  87.9149 337.8854 0001724  82.5726 277.5602 13.18687510228376"
  },
  {
    "name": "ONEWEB-0321",
    "noradId": "49191",
    "line1": "1 49191U 21083F   26156.07996308  .00000089  00000+0  18797-3 0  9991",
    "line2": "2 49191  87.9186 276.8478 0001659 106.0629 254.0687 13.20770866235239"
  },
  {
    "name": "ONEWEB-0322",
    "noradId": "49192",
    "line1": "1 49192U 21083G   26156.19551627 -.00000082  00000+0 -26044-3 0  9995",
    "line2": "2 49192  87.8941 322.6244 0001418  90.5566 269.5725 13.13469994229347"
  },
  {
    "name": "ONEWEB-0324",
    "noradId": "49193",
    "line1": "1 49193U 21083H   26156.07082760 -.00000154  00000+0 -42325-3 0  9990",
    "line2": "2 49193  87.9166 337.8610 0001693 100.0083 260.1241 13.18684743228401"
  },
  {
    "name": "ONEWEB-0325",
    "noradId": "49194",
    "line1": "1 49194U 21083J   26155.99833319  .00000048  00000+0  89852-4 0  9992",
    "line2": "2 49194  87.9157 337.8845 0001839  87.9687 272.1655 13.18686748228406"
  },
  {
    "name": "ONEWEB-0326",
    "noradId": "49195",
    "line1": "1 49195U 21083K   26156.01364365 -.00000172  00000+0 -46803-3 0  9995",
    "line2": "2 49195  87.9167 337.8784 0002010  86.1489 273.9873 13.18684970228397"
  },
  {
    "name": "ONEWEB-0327",
    "noradId": "49196",
    "line1": "1 49196U 21083L   26156.01336839  .00000036  00000+0  57372-4 0  9992",
    "line2": "2 49196  87.9158 337.8837 0002135  81.9946 278.1428 13.18686753228413"
  },
  {
    "name": "ONEWEB-0328",
    "noradId": "49197",
    "line1": "1 49197U 21083M   26154.96651571 -.00000193  00000+0 -56403-3 0  9997",
    "line2": "2 49197  87.8952 322.8411 0001834  97.0089 263.1249 13.13469468229163"
  },
  {
    "name": "ONEWEB-0331",
    "noradId": "49198",
    "line1": "1 49198U 21083N   26156.00677218  .00000050  00000+0  95328-4 0  9991",
    "line2": "2 49198  87.9167 337.8734 0002183  88.8991 271.2391 13.18686951228402"
  },
  {
    "name": "ONEWEB-0333",
    "noradId": "49199",
    "line1": "1 49199U 21083P   26156.18027549 -.00000264  00000+0 -75670-3 0  9993",
    "line2": "2 49199  87.8945 322.6269 0001825  91.3436 268.7903 13.13469221229333"
  },
  {
    "name": "ONEWEB-0334",
    "noradId": "49200",
    "line1": "1 49200U 21083Q   26155.71885036 -.00000088  00000+0 -24924-3 0  9997",
    "line2": "2 49200  87.9193 276.9313 0001093 118.6906 241.4337 13.20772172235140"
  },
  {
    "name": "ONEWEB-0335",
    "noradId": "49201",
    "line1": "1 49201U 21083R   26156.17520505 -.00000211  00000+0 -61317-3 0  9991",
    "line2": "2 49201  87.8945 322.6244 0002009  93.1331 267.0028 13.13469927229343"
  },
  {
    "name": "ONEWEB-0336",
    "noradId": "49202",
    "line1": "1 49202U 21083S   26155.99407115  .00000334  00000+0  87902-3 0  9994",
    "line2": "2 49202  87.8943 322.6566 0002218  95.8604 264.2778 13.13469482229317"
  },
  {
    "name": "ONEWEB-0337",
    "noradId": "49203",
    "line1": "1 49203U 21083T   26156.00409279  .00000165  00000+0  41720-3 0  9991",
    "line2": "2 49203  87.8941 322.6609 0001921  97.6903 262.4444 13.13469096229317"
  }
]