OBJECT_NAME,OBJECT_ID,EPOCH,MEAN_MOTION,ECCENTRICITY,INCLINATION,RA_OF_ASC_NODE,ARG_OF_PERICENTER,MEAN_ANOMALY,EPHEMERIS_TYPE,CLASSIFICATION_TYPE,NORAD_CAT_ID,ELEMENT_SET_NO,REV_AT_EPOCH,BSTAR,MEAN_MOTION_DOT,MEAN_MOTION_DDOT
ONEWEB-0310,2021-075X,2026-06-05T00:54:13.855104,13.12443148,.0001843,87.8944,353.0973,82.9603,277.1735,0,U,49096,999,23359,-.10178E-2,-.353E-5,0
ONEWEB-0311,2021-075Y,2026-06-05T00:31:35.397408,13.17648291,.000232,87.9147,8.2835,89.7503,270.3894,0,U,49097,999,23202,.50537E-4,.33E-6,0
ONEWEB-0312,2021-075Z,2026-06-05T00:53:26.907072,13.17650956,.000204,87.9141,8.2905,95.2895,264.8469,0,U,49098,999,23200,.42739E-3,.179E-5,0
ONEWEB-0313,2021-075AA,2026-06-05T01:00:31.327200,13.17651714,.0001936,87.9140,8.2953,86.5522,273.5831,0,U,49099,999,23199,.18473E-3,.85E-6,0
ONEWEB-0314,2021-075AB,2026-06-05T00:12:08.580096,13.17650294,.0002111,87.9152,8.2739,104.1802,255.9564,0,U,49100,999,23196,-.28883E-4,.2E-7,0
ONEWEB-0315,2021-075AC,2026-06-05T00:15:12.631968,13.12442035,.0002176,87.8951,353.0664,85.2827,274.8550,0,U,49101,999,23357,.67409E-3,.255E-5,0
ONEWEB-0316,2021-075AD,2026-06-05T00:26:45.135744,13.18686137,.0001916,87.9157,337.8786,91.0770,269.0581,0,U,49102,999,23560,.99624E-4,.52E-6,0
ONEWEB-0317,2021-075AE,2026-06-05T00:20:05.267040,13.12441724,.0001133,87.8952,353.0890,100.4952,259.6304,0,U,49103,999,23359,.34453E-3,.137E-5,0
ONEWEB-0318,2021-075AF,2026-06-05T00:21:53.477856,13.18686116,.0002107,87.9167,337.8794,89.9246,270.2127,0,U,49104,999,23556,.46828E-4,.31E-6,0
ONEWEB-0319,2021-075AG,2026-06-05T00:34:00.107040,13.17647859,.0002355,87.9139,8.2874,82.2900,277.8499,0,U,49105,999,23200,.55578E-4,.34E-6,0
ONEWEB-0323,2021-075AH,2026-06-05T01:43:02.472096,13.12442810,.0002394,87.8943,353.0571,85.7827,274.3575,0,U,49106,999,23296,.13266E-2,.49E-5,0
ONEWEB-0329,2021-075AJ,2026-06-05T00:46:09.024960,13.17647958,.0001944,87.9142,8.2870,88.5923,271.5432,0,U,49107,999,23198,.14524E-3,.69E-6,0
ONEWEB-0330,2021-075AK,2026-06-04T23:31:02.653248,13.17649808,.0001898,87.9145,8.3172,95.9836,264.1511,0,U,49108,999,23201,-.34008E-3,-.119E-5,0
ONEWEB-0292,2021-083A,2026-06-04T23:27:05.061024,13.13469724,.0001979,87.8935,322.6715,90.6035,269.5321,0,U,49186,999,22932,.51458E-3,.201E-5,0
ONEWEB-0303,2021-083B,2026-06-05T00:17:02.551776,13.18685826,.0001991,87.9161,337.8799,88.3542,271.7818,0,U,49187,999,22837,.41233E-4,.29E-6,0
ONEWEB-0306,2021-083C,2026-06-05T00:02:28.214880,13.18686188,.0001637,87.9168,337.8689,94.1836,265.9483,0,U,49188,999,22841,.85822E-4,.47E-6,0
ONEWEB-0307,2021-083D,2026-06-04T23:18:33.477120,13.13470130,.0001937,87.8946,322.6685,93.9037,266.2314,0,U,49189,999,22932,.47203E-4,.3E-6,0
ONEWEB-0320,2021-083E,2026-06-05T00:31:35.164128,13.18687510,.0001724,87.9149,337.8854,82.5726,277.5602,0,U,49190,999,22837,-.44975E-5,.11E-6,0
ONEWEB-0321,2021-083F,2026-06-05T01:55:08.810112,13.20770866,.0001659,87.9186,276.8478,106.0629,254.0687,0,U,49191,999,23523,.18797E-3,.89E-6,0
ONEWEB-0322,2021-083G,2026-06-05T04:41:32.605728,13.13469994,.0001418,87.8941,322.6244,90.5566,269.5725,0,U,49192,999,22934,-.26044E-3,-.82E-6,0
ONEWEB-0324,2021-083H,2026-06-05T01:41:59.504640,13.18684743,.0001693,87.9166,337.8610,100.0083,260.1241,0,U,49193,999,22840,-.42325E-3,-.154E-5,0
ONEWEB-0325,2021-083J,2026-06-04T23:57:35.987616,13.18686748,.0001839,87.9157,337.8845,87.9687,272.1655,0,U,49194,999,22840,.89852E-4,.48E-6,0
ONEWEB-0326,2021-083K,2026-06-05T00:19:38.811360,13.18684970,.000201,87.9167,337.8784,86.1489,273.9873,0,U,49195,999,22839,-.46803E-3,-.172E-5,0
ONEWEB-0327,2021-083L,2026-06-05T00:19:15.028896,13.18686753,.0002135,87.9158,337.8837,81.9946,278.1428,0,U,49196,999,22841,.57372E-4,.36E-6,0
ONEWEB-0328,2021-083M,2026-06-03T23:11:46.957344,13.13469468,.00018341,87.8952,322.8411,97.0089,263.1249,0,U,49197,999,22916,-.56403441E-3,-.193E-5,0
ONEWEB-0331,2021-083N,2026-06-05T00:09:45.116352,13.18686951,.0002183,87.9167,337.8734,88.8991,271.2391,0,U,49198,999,22840,.95328E-4,.5E-6,0
ONEWEB-0333,2021-083P,2026-06-05T04:19:35.802336,13.13469221,.0001825,87.8945,322.6269,91.3436,268.7903,0,U,49199,999,22933,-.7567E-3,-.264E-5,0
ONEWEB-0334,2021-083Q,2026-06-04T17:15:08.671104,13.20772172,.0001093,87.9193,276.9313,118.6906,241.4337,0,U,49200,999,23514,-.24924E-3,-.88E-6,0
ONEWEB-0335,2021-083R,2026-06-05T04:12:17.716320,13.13469927,.0002009,87.8945,322.6244,93.1331,267.0028,0,U,49201,999,22934,-.61317E-3,-.211E-5,0
ONEWEB-0336,2021-083S,2026-06-04T23:51:27.747360,13.13469482,.0002218,87.8943,322.6566,95.8604,264.2778,0,U,49202,999,22931,.87902E-3,.334E-5,0
ONEWEB-0337,2021-083T,2026-06-05T00:05:53.617056,13.13469096,.0001921,87.8941,322.6609,97.6903,262.4444,0,U,49203,999,22931,.4172E-3,.165E-5,0
